{
  "type": "FeatureCollection",
  "features": [
    {
      "type": "Feature",
      "properties": {
        "norad_id": 19071,
        "name": "OSCAR 32",
        "group": "nnss",
        "lat": -83.21858704418132,
        "lon": 18.94441022432834,
        "alt_km": 1143.30858069831,
        "timestamp": "2025-12-03T04:52:29.905680+00:00",
        "meta_object_name": "OSCAR 32",
        "meta_object_id": "1988-033B",
        "meta_epoch": "2025-12-02T17:15:59.737824",
        "meta_mean_motion": 13.27951891,
        "meta_eccentricity": 0.018752,
        "meta_inclination": 90.3227,
        "meta_ra_of_asc_node": 16.2129,
        "meta_arg_of_pericenter": 194.6594,
        "meta_mean_anomaly": 289.0383,
        "meta_ephemeris_type": 0,
        "meta_classification_type": "U",
        "meta_norad_cat_id": 19071,
        "meta_element_set_no": 999,
        "meta_rev_at_epoch": 82132,
        "meta_bstar": 0.00016983,
        "meta_mean_motion_dot": 9.3e-07,
        "meta_mean_motion_ddot": 0,
        "tle_line1": "1 19071U 88033B   25336.71944141  .00000093  00000+0  16983-3 0  9991",
        "tle_line2": "2 19071  90.3227  16.2129 0187520 194.6594 289.0383 13.27951891821320"
      },
      "geometry": {
        "type": "Point",
        "coordinates": [
          18.94441022432834,
          -83.21858704418132
        ]
      }
    },
    {
      "type": "Feature",
      "properties": {
        "norad_id": 19223,
        "name": "NOVA 2",
        "group": "nnss",
        "lat": -76.42840212795588,
        "lon": 78.23113057172053,
        "alt_km": 1192.391751102905,
        "timestamp": "2025-12-03T04:52:29.905690+00:00",
        "meta_object_name": "NOVA 2",
        "meta_object_id": "1988-052A",
        "meta_epoch": "2025-12-02T20:47:07.749024",
        "meta_mean_motion": 13.22933997,
        "meta_eccentricity": 0.0031375,
        "meta_inclination": 89.9872,
        "meta_ra_of_asc_node": 78.2846,
        "meta_arg_of_pericenter": 43.4951,
        "meta_mean_anomaly": 76.0711,
        "meta_ephemeris_type": 0,
        "meta_classification_type": "U",
        "meta_norad_cat_id": 19223,
        "meta_element_set_no": 999,
        "meta_rev_at_epoch": 80817,
        "meta_bstar": 0.00014136,
        "meta_mean_motion_dot": 6.8e-07,
        "meta_mean_motion_ddot": 0,
        "tle_line1": "1 19223U 88052A   25336.86606191  .00000068  00000+0  14136-3 0  9997",
        "tle_line2": "2 19223  89.9872  78.2846 0031375  43.4951  76.0711 13.22933997808176"
      },
      "geometry": {
        "type": "Point",
        "coordinates": [
          78.23113057172053,
          -76.42840212795588
        ]
      }
    },
    {
      "type": "Feature",
      "properties": {
        "norad_id": 19419,
        "name": "OSCAR 25",
        "group": "nnss",
        "lat": 45.87493206858207,
        "lon": 20.175671798975998,
        "alt_km": 1142.710790774585,
        "timestamp": "2025-12-03T04:52:29.905700+00:00",
        "meta_object_name": "OSCAR 25",
        "meta_object_id": "1988-074A",
        "meta_epoch": "2025-12-02T16:42:42.390144",
        "meta_mean_motion": 13.42620308,
        "meta_eccentricity": 0.0094211,
        "meta_inclination": 90.0357,
        "meta_ra_of_asc_node": 20.2107,
        "meta_arg_of_pericenter": 275.0259,
        "meta_mean_anomaly": 201.9843,
        "meta_ephemeris_type": 0,
        "meta_classification_type": "U",
        "meta_norad_cat_id": 19419,
        "meta_element_set_no": 999,
        "meta_rev_at_epoch": 82505,
        "meta_bstar": 0.00023232,
        "meta_mean_motion_dot": 1.43e-06,
        "meta_mean_motion_ddot": 0,
        "tle_line1": "1 19419U 88074A   25336.69632396  .00000143  00000+0  23232-3 0  9996",
        "tle_line2": "2 19419  90.0357  20.2107 0094211 275.0259 201.9843 13.42620308825055"
      },
      "geometry": {
        "type": "Point",
        "coordinates": [
          20.175671798975998,
          45.87493206858207
        ]
      }
    },
    {
      "type": "Feature",
      "properties": {
        "norad_id": 19420,
        "name": "OSCAR 31",
        "group": "nnss",
        "lat": -69.39454633152388,
        "lon": 20.660152589603932,
        "alt_km": 1043.2914536732305,
        "timestamp": "2025-12-03T04:52:29.905710+00:00",
        "meta_object_name": "OSCAR 31",
        "meta_object_id": "1988-074B",
        "meta_epoch": "2025-12-02T17:19:08.705856",
        "meta_mean_motion": 13.42582051,
        "meta_eccentricity": 0.009244,
        "meta_inclination": 90.0373,
        "meta_ra_of_asc_node": 20.5591,
        "meta_arg_of_pericenter": 269.0629,
        "meta_mean_anomaly": 215.341,
        "meta_ephemeris_type": 0,
        "meta_classification_type": "U",
        "meta_norad_cat_id": 19420,
        "meta_element_set_no": 999,
        "meta_rev_at_epoch": 82516,
        "meta_bstar": 0.00018827,
        "meta_mean_motion_dot": 1.17e-06,
        "meta_mean_motion_ddot": 0,
        "tle_line1": "1 19420U 88074B   25336.72162854  .00000117  00000+0  18827-3 0  9994",
        "tle_line2": "2 19420  90.0373  20.5591 0092440 269.0629 215.3410 13.42582051825164"
      },
      "geometry": {
        "type": "Point",
        "coordinates": [
          20.660152589603932,
          -69.39454633152388
        ]
      }
    }
  ]
}